NORAD_CAT_ID,OBJECT_NAME,OBJECT_TYPE,EPOCH,MEAN_MOTION,ECCENTRICITY,INCLINATION,RA_OF_ASC_NODE,ARG_OF_PERICENTER,MEAN_ANOMALY,BSTAR,MEAN_MOTION_DOT,MEAN_MOTION_DDOT,TLE_LINE0,TLE_LINE1,TLE_LINE2,SEMIMAJOR_AXIS,PERIOD,APOGEE,PERIGEE,DECAYED
54207.0,STARLINK-5262,PAYLOAD,2023-06-24 12:40:35,15.08838076,0.0001021,53.2159,114.2497,89.3268,270.7841,2.751e-05,1.5e-06,0.0,0 STARLINK-5262,1 54207U 22141BC  23175.52818803  .00000150  00000-0  27510-4 0  9996,2 54207  53.2159 114.2497 0001021  89.3268 270.7841 15.08838076 36906,6917.886,95.438,540.458,539.045,0.0
54207.0,STARLINK-5262,PAYLOAD,2023-06-25 14:06:45,15.08841572,9.81e-05,53.2166,109.4905,88.4204,271.6901,-8.2058e-06,-4.18e-06,0.0,0 STARLINK-5262,1 54207U 22141BC  23176.58802792 -.00000418  00000-0 -82058-5 0  9991,2 54207  53.2166 109.4905 0000981  88.4204 271.6901 15.08841572 37068,6917.876,95.437,540.419,539.062,0.0
54207.0,STARLINK-5262,PAYLOAD,2023-06-27 02:40:38,15.088347,8.37e-05,53.2165,102.6513,86.3443,273.7644,5.0495e-05,5.16e-06,0.0,0 STARLINK-5262,1 54207U 22141BC  23178.11155550  .00000516  00000-0  50495-4 0  9991,2 54207  53.2165 102.6513 0000837  86.3443 273.7644 15.08834700 37296,6917.897,95.438,540.341,539.183,0.0
54207.0,STARLINK-5262,PAYLOAD,2023-06-28 00:56:01,15.08840484,8.55e-05,53.2167,98.4875,86.5821,273.5269,8.7903e-05,1.112e-05,0.0,0 STARLINK-5262,1 54207U 22141BC  23179.03891192  .00001112  00000-0  87903-4 0  9999,2 54207  53.2167  98.4875 0000855  86.5821 273.5269 15.08840484 37436,6917.879,95.438,540.335,539.152,0.0
54207.0,STARLINK-5262,PAYLOAD,2023-06-29 00:46:49,15.08836172,8.75e-05,53.2168,94.0265,90.3862,269.7231,9.2325e-05,1.182e-05,0.0,0 STARLINK-5262,1 54207U 22141BC  23180.03251574  .00001182  00000-0  92325-4 0  9996,2 54207  53.2168  94.0265 0000875  90.3862 269.7231 15.08836172 37583,6917.892,95.438,540.362,539.152,0.0
54207.0,STARLINK-5262,PAYLOAD,2023-07-01 00:28:23,15.08836092,0.0001093,53.217,85.1071,82.2014,277.9102,-2.4261e-05,-6.74e-06,0.0,0 STARLINK-5262,1 54207U 22141BC  23182.01972008 -.00000674  00000-0 -24261-4 0  9999,2 54207  53.2170  85.1071 0001093  82.2014 277.9102 15.08836092 37886,6917.892,95.438,540.513,539.001,0.0
54207.0,STARLINK-5262,PAYLOAD,2023-07-02 09:51:29,15.08841972,0.0001156,53.2175,78.8609,83.6074,276.505,-1.9015e-05,-5.9e-06,0.0,0 STARLINK-5262,1 54207U 22141BC  23183.41075815 -.00000590  00000-0 -19015-4 0  9992,2 54207  53.2175  78.8609 0001156  83.6074 276.5050 15.08841972 38092,6917.874,95.437,540.539,538.94,0.0
54207.0,STARLINK-5262,PAYLOAD,2023-07-03 09:42:16,15.08836084,0.0001172,53.2173,74.4015,87.7493,272.3633,4.603e-05,4.45e-06,0.0,0 STARLINK-5262,1 54207U 22141BC  23184.40436220  .00000445  00000-0  46030-4 0  9997,2 54207  53.2173  74.4015 0001172  87.7493 272.3633 15.08836084 38247,6917.892,95.438,540.568,538.947,0.0
54207.0,STARLINK-5262,PAYLOAD,2023-07-04 15:54:36,15.08838596,0.000118,53.2171,68.7527,90.8032,269.3095,4.8877e-05,4.9e-06,0.0,0 STARLINK-5262,1 54207U 22141BC  23185.66292197  .00000490  00000-0  48877-4 0  9990,2 54207  53.2171  68.7527 0001180  90.8032 269.3095 15.08838596 38431,6917.885,95.438,540.566,538.933,0.0
54207.0,STARLINK-5262,PAYLOAD,2023-07-05 09:23:53,15.0882608,0.0005117,53.2179,65.4805,83.1122,277.0452,-6.8131e-05,-1.374e-05,0.0,0 STARLINK-5262,1 54207U 22141BC  23186.39158910 -.00001374  00000-0 -68131-4 0  9994,2 54207  53.2179  65.4805 0005117  83.1122 277.0452 15.08826080 38541,6917.923,95.438,543.328,536.248,0.0
54207.0,STARLINK-5262,PAYLOAD,2023-07-06 01:17:42,15.08836523,0.0001225,53.2168,62.507,89.2413,270.872,3.1286e-06,-2.38e-06,0.0,0 STARLINK-5262,1 54207U 22141BC  23187.05396647 -.00000238  00000-0  31286-5 0  9998,2 54207  53.2168  62.5070 0001225  89.2413 270.8720 15.08836523 38640,6917.891,95.438,540.603,538.909,0.0
54207.0,STARLINK-5262,PAYLOAD,2023-07-06 09:14:36,15.0889122,0.00011,53.2187,61.0171,86.7914,273.3204,-0.00066718,-0.00010905,0.0,0 STARLINK-5262,1 54207U 22141BC  23187.38514823 -.00010905  00000-0 -66718-3 0  9991,2 54207  53.2187  61.0171 0001100  86.7914 273.3204 15.08891220 38692,6917.724,95.434,540.35,538.828,0.0
54207.0,STARLINK-5262,PAYLOAD,2023-07-06 15:36:10,15.08840086,0.0001168,53.2178,59.8306,92.7143,267.3983,3.216e-05,2.24e-06,0.0,0 STARLINK-5262,1 54207U 22141BC  23187.65012297  .00000224  00000-0  32160-4 0  9995,2 54207  53.2178  59.8306 0001168  92.7143 267.3983 15.08840086 38738,6917.88,95.438,540.553,538.937,0.0
54207.0,STARLINK-5262,PAYLOAD,2023-07-07 01:08:28,15.08850632,0.0001254,53.2176,58.0458,96.4106,263.7029,7.4057e-05,8.91e-06,0.0,0 STARLINK-5262,1 54207U 22141BC  23188.04755357  .00000891  00000-0  74057-4 0  9991,2 54207  53.2176  58.0458 0001254  96.4106 263.7029 15.08850632 38796,6917.848,95.437,540.58,538.845,0.0
54207.0,STARLINK-5262,PAYLOAD,2023-07-07 15:26:57,15.0883448,0.0001129,53.2151,55.3679,96.5721,263.5399,5.2463e-05,5.47e-06,0.0,0 STARLINK-5262,1 54207U 22141BC  23188.64372450  .00000547  00000-0  52463-4 0  9991,2 54207  53.2151  55.3679 0001129  96.5721 263.5399 15.08834480 38880,6917.897,95.438,540.543,538.981,0.0
54207.0,STARLINK-5262,PAYLOAD,2023-07-08 18:28:31,15.08833671,0.0001106,53.2173,50.3146,75.0758,285.0357,3.7466e-05,3.08e-06,0.0,0 STARLINK-5262,1 54207U 22141BC  23189.76980781  .00000308  00000-0  37466-4 0  9998,2 54207  53.2173  50.3146 0001106  75.0758 285.0357 15.08833671 39059,6917.9,95.438,540.53,539.0,0.0
54207.0,STARLINK-5262,PAYLOAD,2023-07-09 00:50:03,15.08844719,0.0001183,53.2169,49.1248,83.0711,277.0416,-5.7328e-06,-3.79e-06,0.0,0 STARLINK-5262,1 54207U 22141BC  23190.03476192 -.00000379  00000-0 -57328-5 0  9996,2 54207  53.2169  49.1248 0001183  83.0711 277.0416 15.08844719 39092,6917.866,95.437,540.549,538.913,0.0
54207.0,STARLINK-5262,PAYLOAD,2023-07-09 18:19:18,15.08833249,0.000114,53.2182,45.8564,81.4614,278.6507,2.275e-05,7.4e-07,0.0,0 STARLINK-5262,1 54207U 22141BC  23190.76341138  .00000074  00000-0  22750-4 0  9997,2 54207  53.2182  45.8564 0001140  81.4614 278.6507 15.08833249 39205,6917.901,95.438,540.555,538.977,0.0
54207.0,STARLINK-5262,PAYLOAD,2023-07-11 00:31:37,15.08840243,0.000113,53.2178,40.2044,89.0174,271.0948,5.556e-05,5.97e-06,0.0,0 STARLINK-5262,1 54207U 22141BC  23192.02196757  .00000597  00000-0  55560-4 0  9998,2 54207  53.2178  40.2044 0001130  89.0174 271.0948 15.08840243 39394,6917.88,95.438,540.526,538.963,0.0
54207.0,STARLINK-5262,PAYLOAD,2023-07-12 06:43:57,15.08848064,0.0001381,53.2196,34.5507,83.5239,276.591,-7.5811e-05,-1.495e-05,0.0,0 STARLINK-5262,1 54207U 22141BC  23193.28052718 -.00001495  00000-0 -75811-4 0  9996,2 54207  53.2196  34.5507 0001381  83.5239 276.5910 15.08848064 39582,6917.856,95.437,540.676,538.765,0.0
54207.0,STARLINK-5262,PAYLOAD,2023-07-13 12:56:17,15.08834818,0.0001295,53.2186,28.9036,84.1859,275.9281,-7.1332e-06,-4.01e-06,0.0,0 STARLINK-5262,1 54207U 22141BC  23194.53909437 -.00000401  00000-0 -71332-5 0  9995,2 54207  53.2186  28.9036 0001295  84.1859 275.9281 15.08834818 39771,6917.896,95.438,540.657,538.865,0.0
54207.0,STARLINK-5262,PAYLOAD,2023-07-14 19:08:36,15.08844349,0.0001091,53.2186,23.2536,83.8868,276.2249,0.00013018,1.785e-05,0.0,0 STARLINK-5262,1 54207U 22141BC  23195.79764376  .00001785  00000-0  13018-3 0  9994,2 54207  53.2186  23.2536 0001091  83.8868 276.2249 15.08844349 39963,6917.867,95.437,540.487,538.977,0.0
54207.0,STARLINK-5262,PAYLOAD,2023-07-15 17:24:01,15.08832054,0.0001265,53.2183,19.0908,62.1914,297.9206,5.192e-05,5.38e-06,0.0,0 STARLINK-5262,1 54207U 22141BC  23196.72501609  .00000538  00000-0  51920-4 0  9996,2 54207  53.2183  19.0908 0001265  62.1914 297.9206 15.08832054 40102,6917.905,95.438,540.645,538.895,0.0
54207.0,STARLINK-5262,PAYLOAD,2023-07-16 18:50:11,15.0884205,0.0001227,53.2189,14.3333,86.4657,273.6475,8.2669e-06,-1.56e-06,0.0,0 STARLINK-5262,1 54207U 22141BC  23197.78485360 -.00000156  00000-0  82669-5 0  9990,2 54207  53.2189  14.3333 0001227  86.4657 273.6475 15.08842050 40262,6917.874,95.437,540.588,538.89,0.0
54207.0,STARLINK-5262,PAYLOAD,2023-07-17 21:51:44,15.08846427,0.000104,53.2184,9.2785,93.9918,266.1193,0.00015946,2.251e-05,0.0,0 STARLINK-5262,1 54207U 22141BC  23198.91092828  .00002251  00000-0  15946-3 0  9998,2 54207  53.2184   9.2785 0001040  93.9918 266.1193 15.08846427 40432,6917.861,95.437,540.445,539.006,0.0
54207.0,STARLINK-5262,PAYLOAD,2023-07-18 15:20:59,15.08839069,0.0001512,53.2184,6.0062,71.7742,288.3414,4.728e-05,4.65e-06,0.0,0 STARLINK-5262,1 54207U 22141BC  23199.63957933  .00000465  00000-0  47280-4 0  9997,2 54207  53.2184   6.0062 0001512  71.7742 288.3414 15.08839069 40546,6917.883,95.438,540.794,538.702,0.0
54207.0,STARLINK-5262,PAYLOAD,2023-07-19 18:22:33,15.08834395,0.0001017,53.2179,0.9498,104.2331,255.8775,-6.4692e-05,-1.317e-05,0.0,0 STARLINK-5262,1 54207U 22141BC  23200.76566634 -.00001317  00000-0 -64692-4 0  9993,2 54207  53.2179   0.9498 0001017 104.2331 255.8775 15.08834395 40717,6917.898,95.438,540.466,539.059,0.0
54207.0,STARLINK-5262,PAYLOAD,2023-07-20 18:13:19,15.08850065,9.09e-05,53.2176,356.4892,101.8428,258.2666,5.5207e-05,5.91e-06,0.0,0 STARLINK-5262,1 54207U 22141BC  23201.75925325  .00000591  00000-0  55207-4 0  9992,2 54207  53.2176 356.4892 0000909 101.8428 258.2666 15.08850065 40864,6917.85,95.437,540.343,539.086,0.0
54207.0,STARLINK-5262,PAYLOAD,2023-07-21 10:07:11,15.08839632,0.0001374,53.2177,353.5169,82.3167,277.7981,0.00013721,1.896e-05,0.0,0 STARLINK-5262,1 54207U 22141BC  23202.42165923  .00001896  00000-0  13721-3 0  9990,2 54207  53.2177 353.5169 0001374  82.3167 277.7981 15.08839632 40964,6917.882,95.438,540.697,538.796,0.0
54207.0,STARLINK-5262,PAYLOAD,2023-07-24 09:39:32,15.08837519,0.0001143,53.2188,340.1354,98.5361,261.5761,4.7428e-05,4.67e-06,0.0,0 STARLINK-5262,1 54207U 22141BC  23205.40246342  .00000467  00000-0  47428-4 0  9991,2 54207  53.2188 340.1354 0001143  98.5361 261.5761 15.08837519 41187,6917.888,95.438,540.544,538.962,0.0
